[{"OBJECT_NAME":"OBJECT F","OBJECT_ID":"2022-023F","EPOCH":"2026-03-09T23:55:35.397408","MEAN_MOTION":15.18257694,"ECCENTRICITY":0.01194645,"INCLINATION":63.4547,"RA_OF_ASC_NODE":250.628,"ARG_OF_PERICENTER":343.8947,"MEAN_ANOMALY":15.838,"EPHEMERIS_TYPE":0,"CLASSIFICATION_TYPE":"U","NORAD_CAT_ID":51951,"ELEMENT_SET_NO":999,"REV_AT_EPOCH":22265,"BSTAR":0.00028900174,"MEAN_MOTION_DOT":6.929e-5,"MEAN_MOTION_DDOT":0},{"OBJECT_NAME":"STARLINK-36176","OBJECT_ID":"2025-293Z","EPOCH":"2026-03-09T11:58:33.118752","MEAN_MOTION":14.983336,"ECCENTRICITY":0.00033076,"INCLINATION":70.0005,"RA_OF_ASC_NODE":94.7588,"ARG_OF_PERICENTER":263.525,"MEAN_ANOMALY":96.5533,"EPHEMERIS_TYPE":0,"CLASSIFICATION_TYPE":"U","NORAD_CAT_ID":67026,"ELEMENT_SET_NO":999,"REV_AT_EPOCH":1485,"BSTAR":0.00011101283,"MEAN_MOTION_DOT":1.232e-5,"MEAN_MOTION_DDOT":0}]
